{"type": "FeatureCollection", "features": [ {"type": "Feature", "properties": {"norad_id": 30501, "name": "FENGYUN 1C DEB", "group": "fengyun-1c-debris", "lat": -61.153891957167005, "lon": 149.457836418768, "alt_km": 801.6076315340451, "timestamp": "2025-12-21T05:44:51.862632+00:00", "meta": {"OBJECT_NAME": "FENGYUN 1C DEB", "OBJECT_ID": "1999-025AHP", "EPOCH": "2025-12-19T22:33:08.390016", "MEAN_MOTION": 14.25388409, "ECCENTRICITY": 0.004063, "INCLINATION": 99.0839, "RA_OF_ASC_NODE": 344.9981, "ARG_OF_PERICENTER": 181.6968, "MEAN_ANOMALY": 234.2134, "EPHEMERIS_TYPE": 0, "CLASSIFICATION_TYPE": "U", "NORAD_CAT_ID": 30501, "ELEMENT_SET_NO": 999, "REV_AT_EPOCH": 97022, "BSTAR": 0.0010657, "MEAN_MOTION_DOT": 2.488e-05, "MEAN_MOTION_DDOT": 0}, "tle": {"line1": "1 30501U 99025AHP 25353.93968044  .00002488  00000+0  10657-2 0  9997", "line2": "2 30501  99.0839 344.9981 0040630 181.6968 234.2134 14.25388409970222"}}, "geometry": {"type": "Point", "coordinates": [149.457836418768, -61.153891957167005]}}, {"type": "Feature", "properties": {"norad_id": 30503, "name": "FENGYUN 1C DEB", "group": "fengyun-1c-debris", "lat": 4.341496033444539, "lon": 19.747254812256315, "alt_km": 838.2546356935472, "timestamp": "2025-12-21T05:44:51.862642+00:00", "meta": {"OBJECT_NAME": "FENGYUN 1C DEB", "OBJECT_ID": "1999-025AHR", "EPOCH": "2025-12-20T20:30:10.712160", "MEAN_MOTION": 14.16133146, "ECCENTRICITY": 0.00082999, "INCLINATION": 99.2041, "RA_OF_ASC_NODE": 198.6441, "ARG_OF_PERICENTER": 241.8059, "MEAN_ANOMALY": 131.0794, "EPHEMERIS_TYPE": 0, "CLASSIFICATION_TYPE": "U", "NORAD_CAT_ID": 30503, "ELEMENT_SET_NO": 999, "REV_AT_EPOCH": 97461, "BSTAR": 0.00019661042, "MEAN_MOTION_DOT": 3.41e-06, "MEAN_MOTION_DDOT": 0}, "tle": {"line1": "1 30503U 99025AHR 25354.85429065  .00000341  00000+0  19661-3 0  9997", "line2": "2 30503  99.2041 198.6441 0008299 241.8059 131.0794 14.16133146974610"}}, "geometry": {"type": "Point", "coordinates": [19.747254812256315, 4.341496033444539]}}, {"type": "Feature", "properties": {"norad_id": 30504, "name": "FENGYUN 1C DEB", "group": "fengyun-1c-debris", "lat": 18.503499719005827, "lon": -135.35564910127653, "alt_km": 754.1739494979674, "timestamp": "2025-12-21T05:44:51.862652+00:00", "meta": {"OBJECT_NAME": "FENGYUN 1C DEB", "OBJECT_ID": "1999-025AHS", "EPOCH": "2025-12-20T21:21:03.455712", "MEAN_MOTION": 14.205134, "ECCENTRICITY": 0.01125354, "INCLINATION": 99.0244, "RA_OF_ASC_NODE": 41.2386, "ARG_OF_PERICENTER": 193.2265, "MEAN_ANOMALY": 340.42, "EPHEMERIS_TYPE": 0, "CLASSIFICATION_TYPE": "U", "NORAD_CAT_ID": 30504, "ELEMENT_SET_NO": 999, "REV_AT_EPOCH": 97509, "BSTAR": 0.00041522892, "MEAN_MOTION_DOT": 9.04e-06, "MEAN_MOTION_DDOT": 0}, "tle": {"line1": "1 30504U 99025AHS 25354.88962333  .00000904  00000+0  41523-3 0  9998", "line2": "2 30504  99.0244  41.2386 0112535 193.2265 340.4200 14.20513400975094"}}, "geometry": {"type": "Point", "coordinates": [-135.35564910127653, 18.503499719005827]}}, {"type": "Feature", "properties": {"norad_id": 30505, "name": "FENGYUN 1C DEB", "group": "fengyun-1c-debris", "lat": 69.22224885822754, "lon": -80.5274837860628, "alt_km": 826.3472939919511, "timestamp": "2025-12-21T05:44:51.862662+00:00", "meta": {"OBJECT_NAME": "FENGYUN 1C DEB", "OBJECT_ID": "1999-025AHT", "EPOCH": "2025-12-19T16:48:19.402848", "MEAN_MOTION": 14.22082203, "ECCENTRICITY": 0.00640466, "INCLINATION": 98.9263, "RA_OF_ASC_NODE": 73.4443, "ARG_OF_PERICENTER": 222.3091, "MEAN_ANOMALY": 291.3273, "EPHEMERIS_TYPE": 0, "CLASSIFICATION_TYPE": "U", "NORAD_CAT_ID": 30505, "ELEMENT_SET_NO": 999, "REV_AT_EPOCH": 97022, "BSTAR": 0.0011830823, "MEAN_MOTION_DOT": 2.628e-05, "MEAN_MOTION_DDOT": 0}, "tle": {"line1": "1 30505U 99025AHT 25353.70022457  .00002628  00000+0  11831-2 0  9996", "line2": "2 30505  98.9263  73.4443 0064046 222.3091 291.3273 14.22082203970227"}}, "geometry": {"type": "Point", "coordinates": [-80.5274837860628, 69.22224885822754]}}, {"type": "Feature", "properties": {"norad_id": 30506, "name": "FENGYUN 1C DEB", "group": "fengyun-1c-debris", "lat": 81.16978841973189, "lon": -82.7510052529792, "alt_km": 885.3446801307146, "timestamp": "2025-12-21T05:44:51.862673+00:00", "meta": {"OBJECT_NAME": "FENGYUN 1C DEB", "OBJECT_ID": "1999-025AHU", "EPOCH": "2025-12-20T07:14:22.755264", "MEAN_MOTION": 14.0865902, "ECCENTRICITY": 0.00699626, "INCLINATION": 98.7566, "RA_OF_ASC_NODE": 359.1576, "ARG_OF_PERICENTER": 326.5277, "MEAN_ANOMALY": 48.43, "EPHEMERIS_TYPE": 0, "CLASSIFICATION_TYPE": "U", "NORAD_CAT_ID": 30506, "ELEMENT_SET_NO": 999, "REV_AT_EPOCH": 96928, "BSTAR": 0.00029950525, "MEAN_MOTION_DOT": 4.84e-06, "MEAN_MOTION_DDOT": 0}, "tle": {"line1": "1 30506U 99025AHU 25354.30165226  .00000484  00000+0  29951-3 0  9997", "line2": "2 30506  98.7566 359.1576 0069962 326.5277  48.4300 14.08659020969285"}}, "geometry": {"type": "Point", "coordinates": [-82.7510052529792, 81.16978841973189]}}, {"type": "Feature", "properties": {"norad_id": 30507, "name": "FENGYUN 1C DEB", "group": "fengyun-1c-debris", "lat": -16.405322478729264, "lon": 62.46360593511098, "alt_km": 944.2474910353249, "timestamp": "2025-12-21T05:44:51.862682+00:00", "meta": {"OBJECT_NAME": "FENGYUN 1C DEB", "OBJECT_ID": "1999-025AHV", "EPOCH": "2025-12-19T10:15:15.593184", "MEAN_MOTION": 14.13206388, "ECCENTRICITY": 0.0128441, "INCLINATION": 99.0135, "RA_OF_ASC_NODE": 57.96, "ARG_OF_PERICENTER": 157.6148, "MEAN_ANOMALY": 331.4874, "EPHEMERIS_TYPE": 0, "CLASSIFICATION_TYPE": "U", "NORAD_CAT_ID": 30507, "ELEMENT_SET_NO": 999, "REV_AT_EPOCH": 96592, "BSTAR": 0.00090704, "MEAN_MOTION_DOT": 1.792e-05, "MEAN_MOTION_DDOT": 0}, "tle": {"line1": "1 30507U 99025AHV 25353.42726381  .00001792  00000+0  90704-3 0  9992", "line2": "2 30507  99.0135  57.9600 0128441 157.6148 331.4874 14.13206388965920"}}, "geometry": {"type": "Point", "coordinates": [62.46360593511098, -16.405322478729264]}}, {"type": "Feature", "properties": {"norad_id": 30509, "name": "FENGYUN 1C DEB", "group": "fengyun-1c-debris", "lat": -13.208388526013533, "lon": -131.4418502721559, "alt_km": 826.3129893177102, "timestamp": "2025-12-21T05:44:51.862692+00:00", "meta": {"OBJECT_NAME": "FENGYUN 1C DEB", "OBJECT_ID": "1999-025AHX", "EPOCH": "2025-12-20T14:33:19.732032", "MEAN_MOTION": 14.07699018, "ECCENTRICITY": 0.0102291, "INCLINATION": 98.4658, "RA_OF_ASC_NODE": 225.9614, "ARG_OF_PERICENTER": 41.2665, "MEAN_ANOMALY": 340.2989, "EPHEMERIS_TYPE": 0, "CLASSIFICATION_TYPE": "U", "NORAD_CAT_ID": 30509, "ELEMENT_SET_NO": 999, "REV_AT_EPOCH": 95833, "BSTAR": 0.0014192, "MEAN_MOTION_DOT": 2.478e-05, "MEAN_MOTION_DDOT": 0}, "tle": {"line1": "1 30509U 99025AHX 25354.60647838  .00002478  00000+0  14192-2 0  9992", "line2": "2 30509  98.4658 225.9614 0102291  41.2665 340.2989 14.07699018958335"}}, "geometry": {"type": "Point", "coordinates": [-131.4418502721559, -13.208388526013533]}}, {"type": "Feature", "properties": {"norad_id": 30510, "name": "FENGYUN 1C DEB", "group": "fengyun-1c-debris", "lat": -17.67198880244166, "lon": -175.4342919652745, "alt_km": 821.6831275443219, "timestamp": "2025-12-21T05:44:51.862703+00:00", "meta": {"OBJECT_NAME": "FENGYUN 1C DEB", "OBJECT_ID": "1999-025AHY", "EPOCH": "2025-12-20T00:11:11.568192", "MEAN_MOTION": 14.12882966, "ECCENTRICITY": 0.0078573, "INCLINATION": 99.2444, "RA_OF_ASC_NODE": 6.269, "ARG_OF_PERICENTER": 146.031, "MEAN_ANOMALY": 269.4943, "EPHEMERIS_TYPE": 0, "CLASSIFICATION_TYPE": "U", "NORAD_CAT_ID": 30510, "ELEMENT_SET_NO": 999, "REV_AT_EPOCH": 96677, "BSTAR": 0.00090593, "MEAN_MOTION_DOT": 1.689e-05, "MEAN_MOTION_DDOT": 0}, "tle": {"line1": "1 30510U 99025AHY 25354.00777278  .00001689  00000+0  90593-3 0  9993", "line2": "2 30510  99.2444   6.2690 0078573 146.0310 269.4943 14.12882966966770"}}, "geometry": {"type": "Point", "coordinates": [-175.4342919652745, -17.67198880244166]}}, {"type": "Feature", "properties": {"norad_id": 30514, "name": "FENGYUN 1C DEB", "group": "fengyun-1c-debris", "lat": -77.99653844078682, "lon": 62.65272522863639, "alt_km": 892.3328639645879, "timestamp": "2025-12-21T05:44:51.862713+00:00", "meta": {"OBJECT_NAME": "FENGYUN 1C DEB", "OBJECT_ID": "1999-025AJC", "EPOCH": "2025-12-20T18:24:42.200640", "MEAN_MOTION": 14.34379063, "ECCENTRICITY": 0.01743276, "INCLINATION": 98.4121, "RA_OF_ASC_NODE": 18.0876, "ARG_OF_PERICENTER": 70.3583, "MEAN_ANOMALY": 291.6323, "EPHEMERIS_TYPE": 0, "CLASSIFICATION_TYPE": "U", "NORAD_CAT_ID": 30514, "ELEMENT_SET_NO": 999, "REV_AT_EPOCH": 98340, "BSTAR": 0.00032817395, "MEAN_MOTION_DOT": 1.049e-05, "MEAN_MOTION_DDOT": 0}, "tle": {"line1": "1 30514U 99025AJC 25354.76715510  .00001049  00000+0  32817-3 0  9996", "line2": "2 30514  98.4121  18.0876 0174327  70.3583 291.6323 14.34379063983400"}}, "geometry": {"type": "Point", "coordinates": [62.65272522863639, -77.99653844078682]}}, {"type": "Feature", "properties": {"norad_id": 30515, "name": "FENGYUN 1C DEB", "group": "fengyun-1c-debris", "lat": 78.38828035243915, "lon": 97.13931404340725, "alt_km": 748.8025872026101, "timestamp": "2025-12-21T05:44:51.862723+00:00", "meta": {"OBJECT_NAME": "FENGYUN 1C DEB", "OBJECT_ID": "1999-025AJD", "EPOCH": "2025-12-20T15:20:34.129824", "MEAN_MOTION": 13.63815772, "ECCENTRICITY": 0.0497002, "INCLINATION": 98.5093, "RA_OF_ASC_NODE": 229.8454, "ARG_OF_PERICENTER": 53.7401, "MEAN_ANOMALY": 334.9336, "EPHEMERIS_TYPE": 0, "CLASSIFICATION_TYPE": "U", "NORAD_CAT_ID": 30515, "ELEMENT_SET_NO": 999, "REV_AT_EPOCH": 93438, "BSTAR": 0.00072615, "MEAN_MOTION_DOT": 1.303e-05, "MEAN_MOTION_DDOT": 0}, "tle": {"line1": "1 30515U 99025AJD 25354.63928391  .00001303  00000+0  72615-3 0  9999", "line2": "2 30515  98.5093 229.8454 0497002  53.7401 334.9336 13.63815772934387"}}, "geometry": {"type": "Point", "coordinates": [97.13931404340725, 78.38828035243915]}}]}